{
  "type": "FeatureCollection",
  "features": [
    {
      "type": "Feature",
      "properties": {
        "norad_id": 38818,
        "name": "FENGYUN 1C DEB",
        "group": "fengyun-1c-debris",
        "lat": 6.916767204801474,
        "lon": 53.60329624474838,
        "alt_km": 727.0379561944337,
        "timestamp": "2025-12-24T16:52:41.822954+00:00",
        "meta_object_name": "FENGYUN 1C DEB",
        "meta_object_id": "1999-025EVJ",
        "meta_epoch": "2025-12-19T22:33:15.721056",
        "meta_mean_motion": 14.39504218,
        "meta_eccentricity": 0.0088399,
        "meta_inclination": 98.2985,
        "meta_ra_of_asc_node": 50.005,
        "meta_arg_of_pericenter": 78.086,
        "meta_mean_anomaly": 98.6617,
        "meta_ephemeris_type": 0,
        "meta_classification_type": "U",
        "meta_norad_cat_id": 38818,
        "meta_element_set_no": 999,
        "meta_rev_at_epoch": 67351,
        "meta_bstar": 0.00027316,
        "meta_mean_motion_dot": 8.48e-06,
        "meta_mean_motion_ddot": 0,
        "tle_line1": "1 38818U 99025EVJ 25353.93976529  .00000848  00000+0  27316-3 0  9992",
        "tle_line2": "2 38818  98.2985  50.0050 0088399  78.0860  98.6617 14.39504218673513"
      },
      "geometry": {
        "type": "Point",
        "coordinates": [
          53.60329624474838,
          6.916767204801474
        ]
      }
    },
    {
      "type": "Feature",
      "properties": {
        "norad_id": 38819,
        "name": "FENGYUN 1C DEB",
        "group": "fengyun-1c-debris",
        "lat": -4.550699980195082,
        "lon": 170.50055455891504,
        "alt_km": 778.3626996310868,
        "timestamp": "2025-12-24T16:52:41.822964+00:00",
        "meta_object_name": "FENGYUN 1C DEB",
        "meta_object_id": "1999-025EVK",
        "meta_epoch": "2025-12-21T05:24:44.153856",
        "meta_mean_motion": 14.19385553,
        "meta_eccentricity": 0.0080075,
        "meta_inclination": 98.6179,
        "meta_ra_of_asc_node": 347.8087,
        "meta_arg_of_pericenter": 169.9002,
        "meta_mean_anomaly": 253.6403,
        "meta_ephemeris_type": 0,
        "meta_classification_type": "U",
        "meta_norad_cat_id": 38819,
        "meta_element_set_no": 999,
        "meta_rev_at_epoch": 63598,
        "meta_bstar": 0.00031541,
        "meta_mean_motion_dot": 6.42e-06,
        "meta_mean_motion_ddot": 0,
        "tle_line1": "1 38819U 99025EVK 25355.22551104  .00000642  00000+0  31541-3 0  9992",
        "tle_line2": "2 38819  98.6179 347.8087 0080075 169.9002 253.6403 14.19385553635983"
      },
      "geometry": {
        "type": "Point",
        "coordinates": [
          170.50055455891504,
          -4.550699980195082
        ]
      }
    },
    {
      "type": "Feature",
      "properties": {
        "norad_id": 38827,
        "name": "FENGYUN 1C DEB",
        "group": "fengyun-1c-debris",
        "lat": -14.467451865104474,
        "lon": 23.439154315132672,
        "alt_km": 726.5738338327064,
        "timestamp": "2025-12-24T16:52:41.822975+00:00",
        "meta_object_name": "FENGYUN 1C DEB",
        "meta_object_id": "1999-025EVT",
        "meta_epoch": "2025-12-22T07:57:58.637952",
        "meta_mean_motion": 14.32909061,
        "meta_eccentricity": 0.02157809,
        "meta_inclination": 98.3849,
        "meta_ra_of_asc_node": 18.9611,
        "meta_arg_of_pericenter": 284.2489,
        "meta_mean_anomaly": 73.4818,
        "meta_ephemeris_type": 0,
        "meta_classification_type": "U",
        "meta_norad_cat_id": 38827,
        "meta_element_set_no": 999,
        "meta_rev_at_epoch": 61197,
        "meta_bstar": 0.00094975527,
        "meta_mean_motion_dot": 3.312e-05,
        "meta_mean_motion_ddot": 0,
        "tle_line1": "1 38827U 99025EVT 25356.33192868  .00003312  00000+0  94976-3 0  9990",
        "tle_line2": "2 38827  98.3849  18.9611 0215780 284.2489  73.4818 14.32909061611977"
      },
      "geometry": {
        "type": "Point",
        "coordinates": [
          23.439154315132672,
          -14.467451865104474
        ]
      }
    },
    {
      "type": "Feature",
      "properties": {
        "norad_id": 38829,
        "name": "FENGYUN 1C DEB",
        "group": "fengyun-1c-debris",
        "lat": -14.145546549354632,
        "lon": 16.55467712591227,
        "alt_km": 837.5792446614796,
        "timestamp": "2025-12-24T16:52:41.822987+00:00",
        "meta_object_name": "FENGYUN 1C DEB",
        "meta_object_id": "1999-025EVV",
        "meta_epoch": "2025-12-24T06:43:17.691168",
        "meta_mean_motion": 14.09239954,
        "meta_eccentricity": 0.00407032,
        "meta_inclination": 98.7492,
        "meta_ra_of_asc_node": 13.9194,
        "meta_arg_of_pericenter": 358.0019,
        "meta_mean_anomaly": 2.0983,
        "meta_ephemeris_type": 0,
        "meta_classification_type": "U",
        "meta_norad_cat_id": 38829,
        "meta_element_set_no": 999,
        "meta_rev_at_epoch": 64295,
        "meta_bstar": 0.00056817994,
        "meta_mean_motion_dot": 9.53e-06,
        "meta_mean_motion_ddot": 0,
        "tle_line1": "1 38829U 99025EVV 25358.28006587  .00000953  00000+0  56818-3 0  9991",
        "tle_line2": "2 38829  98.7492  13.9194 0040703 358.0019   2.0983 14.09239954642952"
      },
      "geometry": {
        "type": "Point",
        "coordinates": [
          16.55467712591227,
          -14.145546549354632
        ]
      }
    },
    {
      "type": "Feature",
      "properties": {
        "norad_id": 38832,
        "name": "FENGYUN 1C DEB",
        "group": "fengyun-1c-debris",
        "lat": -40.1507377381947,
        "lon": -144.6012175002706,
        "alt_km": 936.3310150444131,
        "timestamp": "2025-12-24T16:52:41.822999+00:00",
        "meta_object_name": "FENGYUN 1C DEB",
        "meta_object_id": "1999-025EVY",
        "meta_epoch": "2025-12-24T02:09:06.186816",
        "meta_mean_motion": 14.04532991,
        "meta_eccentricity": 0.00836335,
        "meta_inclination": 99.2651,
        "meta_ra_of_asc_node": 42.6878,
        "meta_arg_of_pericenter": 11.1486,
        "meta_mean_anomaly": 349.1508,
        "meta_ephemeris_type": 0,
        "meta_classification_type": "U",
        "meta_norad_cat_id": 38832,
        "meta_element_set_no": 999,
        "meta_rev_at_epoch": 63917,
        "meta_bstar": 0.00096745057,
        "meta_mean_motion_dot": 1.547e-05,
        "meta_mean_motion_ddot": 0,
        "tle_line1": "1 38832U 99025EVY 25358.08965494  .00001547  00000+0  96745-3 0  9997",
        "tle_line2": "2 38832  99.2651  42.6878 0083633  11.1486 349.1508 14.04532991639171"
      },
      "geometry": {
        "type": "Point",
        "coordinates": [
          -144.6012175002706,
          -40.1507377381947
        ]
      }
    },
    {
      "type": "Feature",
      "properties": {
        "norad_id": 39537,
        "name": "FENGYUN 1C DEB",
        "group": "fengyun-1c-debris",
        "lat": -80.81156553536384,
        "lon": -130.5437920963884,
        "alt_km": 853.0078502521019,
        "timestamp": "2025-12-24T16:52:41.823010+00:00",
        "meta_object_name": "FENGYUN 1C DEB",
        "meta_object_id": "1999-025EWE",
        "meta_epoch": "2025-12-19T15:51:43.070688",
        "meta_mean_motion": 13.84193589,
        "meta_eccentricity": 0.0177797,
        "meta_inclination": 99.1526,
        "meta_ra_of_asc_node": 139.2359,
        "meta_arg_of_pericenter": 322.4144,
        "meta_mean_anomaly": 36.4691,
        "meta_ephemeris_type": 0,
        "meta_classification_type": "U",
        "meta_norad_cat_id": 39537,
        "meta_element_set_no": 999,
        "meta_rev_at_epoch": 59352,
        "meta_bstar": 0.0010435,
        "meta_mean_motion_dot": 1.271e-05,
        "meta_mean_motion_ddot": 0,
        "tle_line1": "1 39537U 99025EWE 25353.66091517  .00001271  00000+0  10435-2 0  9990",
        "tle_line2": "2 39537  99.1526 139.2359 0177797 322.4144  36.4691 13.84193589593525"
      },
      "geometry": {
        "type": "Point",
        "coordinates": [
          -130.5437920963884,
          -80.81156553536384
        ]
      }
    },
    {
      "type": "Feature",
      "properties": {
        "norad_id": 39541,
        "name": "FENGYUN 1C DEB",
        "group": "fengyun-1c-debris",
        "lat": 66.0945678574621,
        "lon": -119.24512151530124,
        "alt_km": 802.2195483411951,
        "timestamp": "2025-12-24T16:52:41.823020+00:00",
        "meta_object_name": "FENGYUN 1C DEB",
        "meta_object_id": "1999-025EWJ",
        "meta_epoch": "2025-12-14T09:31:50.250432",
        "meta_mean_motion": 14.20397112,
        "meta_eccentricity": 0.00718166,
        "meta_inclination": 98.681,
        "meta_ra_of_asc_node": 30.4764,
        "meta_arg_of_pericenter": 68.7411,
        "meta_mean_anomaly": 292.1416,
        "meta_ephemeris_type": 0,
        "meta_classification_type": "U",
        "meta_norad_cat_id": 39541,
        "meta_element_set_no": 999,
        "meta_rev_at_epoch": 59026,
        "meta_bstar": 0.00071004371,
        "meta_mean_motion_dot": 1.519e-05,
        "meta_mean_motion_ddot": 0,
        "tle_line1": "1 39541U 99025EWJ 25348.39710938  .00001519  00000+0  71004-3 0  9999",
        "tle_line2": "2 39541  98.6810  30.4764 0071816  68.7411 292.1416 14.20397112590267"
      },
      "geometry": {
        "type": "Point",
        "coordinates": [
          -119.24512151530124,
          66.0945678574621
        ]
      }
    }
  ]
}